[{"OBJECT_NAME":"ONEWEB-0684","OBJECT_ID":"2023-068L","EPOCH":"2025-09-25T01:54:36.075744","MEAN_MOTION":13.15548457,"ECCENTRICITY":0.00013923,"INCLINATION":87.8996,"RA_OF_ASC_NODE":312.0828,"ARG_OF_PERICENTER":145.0373,"MEAN_ANOMALY":215.0849,"EPHEMERIS_TYPE":0,"CLASSIFICATION_TYPE":"U","NORAD_CAT_ID":56720,"ELEMENT_SET_NO":999,"REV_AT_EPOCH":11439,"BSTAR":-0.00071921671,"MEAN_MOTION_DOT":-2.58e-6,"MEAN_MOTION_DDOT":0},{"OBJECT_NAME":"ONEWEB-0686","OBJECT_ID":"2023-068M","EPOCH":"2025-09-25T07:38:17.837664","MEAN_MOTION":13.16592527,"ECCENTRICITY":0.00020188,"INCLINATION":87.896,"RA_OF_ASC_NODE":281.5831,"ARG_OF_PERICENTER":99.8399,"MEAN_ANOMALY":260.296,"EPHEMERIS_TYPE":0,"CLASSIFICATION_TYPE":"U","NORAD_CAT_ID":56721,"ELEMENT_SET_NO":999,"REV_AT_EPOCH":11686,"BSTAR":4.3061184e-5,"MEAN_MOTION_DOT":2.9e-7,"MEAN_MOTION_DDOT":0},{"OBJECT_NAME":"ONEWEB-0694","OBJECT_ID":"2023-068N","EPOCH":"2025-09-25T06:50:26.042496","MEAN_MOTION":13.16594174,"ECCENTRICITY":0.00023295,"INCLINATION":87.8983,"RA_OF_ASC_NODE":281.5216,"ARG_OF_PERICENTER":92.4925,"MEAN_ANOMALY":267.6473,"EPHEMERIS_TYPE":0,"CLASSIFICATION_TYPE":"U","NORAD_CAT_ID":56722,"ELEMENT_SET_NO":999,"REV_AT_EPOCH":11691,"BSTAR":9.5681055e-5,"MEAN_MOTION_DOT":4.9e-7,"MEAN_MOTION_DDOT":0},{"OBJECT_NAME":"ONEWEB-0696","OBJECT_ID":"2023-068P","EPOCH":"2025-09-25T04:32:03.435360","MEAN_MOTION":13.15547214,"ECCENTRICITY":0.00015604,"INCLINATION":87.9007,"RA_OF_ASC_NODE":312.116,"ARG_OF_PERICENTER":98.3846,"MEAN_ANOMALY":261.7461,"EPHEMERIS_TYPE":0,"CLASSIFICATION_TYPE":"U","NORAD_CAT_ID":56723,"ELEMENT_SET_NO":999,"REV_AT_EPOCH":11452,"BSTAR":0.00034550846,"MEAN_MOTION_DOT":1.43e-6,"MEAN_MOTION_DDOT":0},{"OBJECT_NAME":"ONEWEB-0703","OBJECT_ID":"2023-068Q","EPOCH":"2025-09-25T02:56:13.292448","MEAN_MOTION":13.15547069,"ECCENTRICITY":9.008e-5,"INCLINATION":87.9003,"RA_OF_ASC_NODE":312.113,"ARG_OF_PERICENTER":71.1241,"MEAN_ANOMALY":288.9987,"EPHEMERIS_TYPE":0,"CLASSIFICATION_TYPE":"U","NORAD_CAT_ID":56724,"ELEMENT_SET_NO":999,"REV_AT_EPOCH":11440,"BSTAR":0.00052848202,"MEAN_MOTION_DOT":2.12e-6,"MEAN_MOTION_DDOT":0},{"OBJECT_NAME":"ONEWEB-0721","OBJECT_ID":"2023-068R","EPOCH":"2025-09-25T06:07:10.678080","MEAN_MOTION":13.224457,"ECCENTRICITY":0.00017297,"INCLINATION":86.6873,"RA_OF_ASC_NODE":169.9852,"ARG_OF_PERICENTER":72.7203,"MEAN_ANOMALY":287.412,"EPHEMERIS_TYPE":0,"CLASSIFICATION_TYPE":"U","NORAD_CAT_ID":56725,"ELEMENT_SET_NO":999,"REV_AT_EPOCH":12292,"BSTAR":-9.1116754e-5,"MEAN_MOTION_DOT":-2.4e-7,"MEAN_MOTION_DDOT":0},{"OBJECT_NAME":"ONEWEB-0015","OBJECT_ID":"2024-188A","EPOCH":"2025-09-24T22:46:57.890496","MEAN_MOTION":13.11414744,"ECCENTRICITY":0.00020246,"INCLINATION":87.8794,"RA_OF_ASC_NODE":73.9358,"ARG_OF_PERICENTER":75.7203,"MEAN_ANOMALY":284.415,"EPHEMERIS_TYPE":0,"CLASSIFICATION_TYPE":"U","NORAD_CAT_ID":61594,"ELEMENT_SET_NO":999,"REV_AT_EPOCH":4969,"BSTAR":-0.0014756998,"MEAN_MOTION_DOT":-5.1e-6,"MEAN_MOTION_DDOT":0},{"OBJECT_NAME":"ONEWEB-0687","OBJECT_ID":"2024-188B","EPOCH":"2025-09-25T03:18:09.879840","MEAN_MOTION":13.17647525,"ECCENTRICITY":0.00022822,"INCLINATION":87.9055,"RA_OF_ASC_NODE":58.6229,"ARG_OF_PERICENTER":91.6769,"MEAN_ANOMALY":268.4624,"EPHEMERIS_TYPE":0,"CLASSIFICATION_TYPE":"U","NORAD_CAT_ID":61595,"ELEMENT_SET_NO":999,"REV_AT_EPOCH":5099,"BSTAR":0.000147329,"MEAN_MOTION_DOT":7.0e-7,"MEAN_MOTION_DDOT":0},{"OBJECT_NAME":"ONEWEB-0688","OBJECT_ID":"2024-188C","EPOCH":"2025-09-24T20:42:05.774976","MEAN_MOTION":13.17637964,"ECCENTRICITY":0.00025755,"INCLINATION":87.9059,"RA_OF_ASC_NODE":58.6781,"ARG_OF_PERICENTER":67.6117,"MEAN_ANOMALY":292.5287,"EPHEMERIS_TYPE":0,"CLASSIFICATION_TYPE":"U","NORAD_CAT_ID":61596,"ELEMENT_SET_NO":999,"REV_AT_EPOCH":5095,"BSTAR":-0.0030034261,"MEAN_MOTION_DOT":-1.153e-5,"MEAN_MOTION_DDOT":0},{"OBJECT_NAME":"ONEWEB-0689","OBJECT_ID":"2024-188D","EPOCH":"2025-09-24T23:35:48.888672","MEAN_MOTION":13.11417709,"ECCENTRICITY":0.0001972,"INCLINATION":87.8759,"RA_OF_ASC_NODE":73.8793,"ARG_OF_PERICENTER":95.3077,"MEAN_ANOMALY":264.8276,"EPHEMERIS_TYPE":0,"CLASSIFICATION_TYPE":"U","NORAD_CAT_ID":61597,"ELEMENT_SET_NO":999,"REV_AT_EPOCH":4969,"BSTAR":0.001156099,"MEAN_MOTION_DOT":4.22e-6,"MEAN_MOTION_DDOT":0},{"OBJECT_NAME":"ONEWEB-0690","OBJECT_ID":"2024-188E","EPOCH":"2025-09-24T23:50:29.249376","MEAN_MOTION":13.11416197,"ECCENTRICITY":8.932e-5,"INCLINATION":87.8804,"RA_OF_ASC_NODE":73.8636,"ARG_OF_PERICENTER":82.3868,"MEAN_ANOMALY":277.7361,"EPHEMERIS_TYPE":0,"CLASSIFICATION_TYPE":"U","NORAD_CAT_ID":61598,"ELEMENT_SET_NO":999,"REV_AT_EPOCH":4987,"BSTAR":0.0015077621,"MEAN_MOTION_DOT":5.47e-6,"MEAN_MOTION_DDOT":0},{"OBJECT_NAME":"ONEWEB-0691","OBJECT_ID":"2024-188F","EPOCH":"2025-09-24T23:43:08.300928","MEAN_MOTION":13.1141522,"ECCENTRICITY":0.00018324,"INCLINATION":87.8723,"RA_OF_ASC_NODE":73.8115,"ARG_OF_PERICENTER":78.0228,"MEAN_ANOMALY":282.1105,"EPHEMERIS_TYPE":0,"CLASSIFICATION_TYPE":"U","NORAD_CAT_ID":61599,"ELEMENT_SET_NO":999,"REV_AT_EPOCH":4972,"BSTAR":0.0014666763,"MEAN_MOTION_DOT":5.33e-6,"MEAN_MOTION_DDOT":0},{"OBJECT_NAME":"ONEWEB-0692","OBJECT_ID":"2024-188G","EPOCH":"2025-09-25T00:12:26.279136","MEAN_MOTION":13.114102,"ECCENTRICITY":0.00019157,"INCLINATION":87.8779,"RA_OF_ASC_NODE":73.9223,"ARG_OF_PERICENTER":121.6566,"MEAN_ANOMALY":238.475,"EPHEMERIS_TYPE":0,"CLASSIFICATION_TYPE":"U","NORAD_CAT_ID":61600,"ELEMENT_SET_NO":999,"REV_AT_EPOCH":4971,"BSTAR":0.00011582638,"MEAN_MOTION_DOT":5.4e-7,"MEAN_MOTION_DDOT":0},{"OBJECT_NAME":"ONEWEB-0693","OBJECT_ID":"2024-188H","EPOCH":"2025-09-24T22:48:25.811136","MEAN_MOTION":13.17649704,"ECCENTRICITY":0.00010161,"INCLINATION":87.9059,"RA_OF_ASC_NODE":58.6791,"ARG_OF_PERICENTER":68.1472,"MEAN_ANOMALY":291.9767,"EPHEMERIS_TYPE":0,"CLASSIFICATION_TYPE":"U","NORAD_CAT_ID":61601,"ELEMENT_SET_NO":999,"REV_AT_EPOCH":5095,"BSTAR":9.4913049e-5,"MEAN_MOTION_DOT":5.0e-7,"MEAN_MOTION_DDOT":0},{"OBJECT_NAME":"ONEWEB-0695","OBJECT_ID":"2024-188J","EPOCH":"2025-09-24T23:38:15.048096","MEAN_MOTION":13.11417821,"ECCENTRICITY":0.00020248,"INCLINATION":87.8786,"RA_OF_ASC_NODE":73.9142,"ARG_OF_PERICENTER":103.9797,"MEAN_ANOMALY":256.1557,"EPHEMERIS_TYPE":0,"CLASSIFICATION_TYPE":"U","NORAD_CAT_ID":61602,"ELEMENT_SET_NO":999,"REV_AT_EPOCH":4970,"BSTAR":0.001299846,"MEAN_MOTION_DOT":4.73e-6,"MEAN_MOTION_DDOT":0},{"OBJECT_NAME":"ONEWEB-0697","OBJECT_ID":"2024-188K","EPOCH":"2025-09-25T00:24:38.106144","MEAN_MOTION":13.11413574,"ECCENTRICITY":0.00018181,"INCLINATION":87.878,"RA_OF_ASC_NODE":73.8988,"ARG_OF_PERICENTER":119.6575,"MEAN_ANOMALY":240.4734,"EPHEMERIS_TYPE":0,"CLASSIFICATION_TYPE":"U","NORAD_CAT_ID":61603,"ELEMENT_SET_NO":999,"REV_AT_EPOCH":4969,"BSTAR":-0.00083090118,"MEAN_MOTION_DOT":-2.82e-6,"MEAN_MOTION_DDOT":0},{"OBJECT_NAME":"ONEWEB-0698","OBJECT_ID":"2024-188L","EPOCH":"2025-09-24T23:52:54.625152","MEAN_MOTION":13.11414453,"ECCENTRICITY":0.00011004,"INCLINATION":87.8784,"RA_OF_ASC_NODE":73.9177,"ARG_OF_PERICENTER":132.3514,"MEAN_ANOMALY":227.7707,"EPHEMERIS_TYPE":0,"CLASSIFICATION_TYPE":"U","NORAD_CAT_ID":61604,"ELEMENT_SET_NO":999,"REV_AT_EPOCH":4971,"BSTAR":0.001456542,"MEAN_MOTION_DOT":5.29e-6,"MEAN_MOTION_DDOT":0}]
