ONEWEB-0684             
1 56720U 23068L   25268.07958421 -.00000258  00000+0 -71922-3 0  9998
2 56720  87.8996 312.0828 0001392 145.0373 215.0849 13.15548457114391
ONEWEB-0686             
1 56721U 23068M   25268.31826201  .00000029  00000+0  43061-4 0  9994
2 56721  87.8960 281.5831 0002018  99.8399 260.2960 13.16592527116865
ONEWEB-0694             
1 56722U 23068N   25268.28502364  .00000049  00000+0  95681-4 0  9999
2 56722  87.8983 281.5216 0002329  92.4925 267.6473 13.16594174116913
ONEWEB-0696             
1 56723U 23068P   25268.18892865  .00000143  00000+0  34551-3 0  9990
2 56723  87.9007 312.1160 0001560  98.3846 261.7461 13.15547214114523
ONEWEB-0703             
1 56724U 23068Q   25268.12237607  .00000212  00000+0  52848-3 0  9998
2 56724  87.9003 312.1130 0000900  71.1241 288.9987 13.15547069114401
ONEWEB-0721             
1 56725U 23068R   25268.25498470 -.00000024  00000+0 -91117-4 0  9996
2 56725  86.6873 169.9852 0001729  72.7203 287.4120 13.22445700122923
ONEWEB-0015             
1 61594U 24188A   25267.94928114 -.00000510  00000+0 -14757-2 0  9991
2 61594  87.8794  73.9358 0002024  75.7203 284.4150 13.11414744 49699
ONEWEB-0687             
1 61595U 24188B   25268.13761435  .00000070  00000+0  14733-3 0  9999
2 61595  87.9055  58.6229 0002282  91.6769 268.4624 13.17647525 50992
ONEWEB-0688             
1 61596U 24188C   25267.86256684 -.00001153  00000+0 -30034-2 0  9990
2 61596  87.9059  58.6781 0002575  67.6117 292.5287 13.17637964 50950
ONEWEB-0689             
1 61597U 24188D   25267.98320473  .00000422  00000+0  11561-2 0  9992
2 61597  87.8759  73.8793 0001972  95.3077 264.8276 13.11417709 49698
ONEWEB-0690             
1 61598U 24188E   25267.99339409  .00000547  00000+0  15078-2 0  9998
2 61598  87.8804  73.8636 0000893  82.3868 277.7361 13.11416197 49879
ONEWEB-0691             
1 61599U 24188F   25267.98829052  .00000533  00000+0  14667-2 0  9994
2 61599  87.8723  73.8115 0001832  78.0228 282.1105 13.11415220 49724
ONEWEB-0692             
1 61600U 24188G   25268.00863749  .00000054  00000+0  11583-3 0  9995
2 61600  87.8779  73.9223 0001915 121.6566 238.4750 13.11410200 49713
ONEWEB-0693             
1 61601U 24188H   25267.95029874  .00000050  00000+0  94913-4 0  9997
2 61601  87.9059  58.6791 0001016  68.1472 291.9767 13.17649704 50958
ONEWEB-0695             
1 61602U 24188J   25267.98489639  .00000473  00000+0  12998-2 0  9990
2 61602  87.8786  73.9142 0002024 103.9797 256.1557 13.11417821 49701
ONEWEB-0697             
1 61603U 24188K   25268.01710771 -.00000282  00000+0 -83090-3 0  9992
2 61603  87.8780  73.8988 0001818 119.6575 240.4734 13.11413574 49693
ONEWEB-0698             
1 61604U 24188L   25267.99507668  .00000529  00000+0  14565-2 0  9990
2 61604  87.8784  73.9177 0001100 132.3514 227.7707 13.11414453 49716
